ALOS (DAICHI)           
1 28931U 06002A   25351.73419158  .00001110  00000+0  19545-3 0  9994
2 28931  98.1098 303.1864 0001361 113.5739 246.5610 14.69501788 61443
H-2A R/B                
1 28932U 06002B   25359.93155286  .00010937  00000+0  57048-3 0  9991
2 28932  98.2329 135.7603 0054865 131.8593 228.7338 15.14831007 83264
RESURS-DK 1             
1 29228U 06021A   25359.53077235  .00003053  00000+0  18237-3 0  9992
2 29228  69.9336  68.7803 0006922 247.3291 112.7143 15.12230969 76314
CZ-4B R/B               
1 29507U 06046C   25360.10271749  .00004551  00000+0  23705-3 0  9990
2 29507  97.5714  40.2044 0034447 160.0370 200.2219 15.16002503 48899
CZ-2C R/B               
1 31114U 07010B   25359.75242350  .00000161  00000+0  92898-4 0  9997
2 31114  98.3976 111.7485 0059635 148.3508 212.1277 14.20214979969227
KORONAS-FOTON           
1 33504U 09003A   25360.06329528  .00008652  00000+0  20529-3 0  9999
2 33504  82.4311 352.2964 0013280  66.5586 293.7055 15.41446276934396
CZ-2C R/B               
1 37731U 11030B   25359.90536351  .00001346  00000+0  17709-3 0  9992
2 37731  97.8432 313.7220 0051586 229.5709 196.7895 14.80940535779178
H-2A R/B                
1 38341U 12025E   25359.82955965  .00003755  00000+0  34708-3 0  9996
2 38341  98.4615 316.0706 0044626 192.3582 167.6545 14.94525889737184
SHIJIAN-16 (SJ-16)      
1 39358U 13057A   25360.21431491  .00001200  00000+0  12090-3 0  9992
2 39358  74.9744 324.1573 0018027 288.5843  71.3387 14.92023886660549
